{
  "type": "FeatureCollection",
  "features": [
    {
      "type": "Feature",
      "properties": {
        "norad_id": 30827,
        "name": "FENGYUN 1C DEB",
        "group": "fengyun-1c-debris",
        "lat": -71.67601018561038,
        "lon": 1.9333647390492934,
        "alt_km": 783.8127519244335,
        "timestamp": "2025-12-13T20:38:51.284142+00:00",
        "meta_object_name": "FENGYUN 1C DEB",
        "meta_object_id": "1999-025AVM",
        "meta_epoch": "2025-12-11T05:31:34.049280",
        "meta_mean_motion": 14.37749293,
        "meta_eccentricity": 0.00435959,
        "meta_inclination": 99.0037,
        "meta_ra_of_asc_node": 330.5761,
        "meta_arg_of_pericenter": 183.204,
        "meta_mean_anomaly": 176.8873,
        "meta_ephemeris_type": 0,
        "meta_classification_type": "U",
        "meta_norad_cat_id": 30827,
        "meta_element_set_no": 999,
        "meta_rev_at_epoch": 96527,
        "meta_bstar": 0.0040350501,
        "meta_mean_motion_dot": 0.00012251,
        "meta_mean_motion_ddot": 0,
        "tle_line1": "1 30827U 99025AVM 25345.23025520  .00012251  00000+0  40351-2 0  9998",
        "tle_line2": "2 30827  99.0037 330.5761 0043595 183.2040 176.8873 14.37749293965277"
      },
      "geometry": {
        "type": "Point",
        "coordinates": [
          1.9333647390492934,
          -71.67601018561038
        ]
      }
    },
    {
      "type": "Feature",
      "properties": {
        "norad_id": 30828,
        "name": "FENGYUN 1C DEB",
        "group": "fengyun-1c-debris",
        "lat": 76.12861149451795,
        "lon": -48.50347364458788,
        "alt_km": 588.4251923651382,
        "timestamp": "2025-12-13T20:38:51.284153+00:00",
        "meta_object_name": "FENGYUN 1C DEB",
        "meta_object_id": "1999-025AVN",
        "meta_epoch": "2025-12-13T01:27:50.227200",
        "meta_mean_motion": 14.77006922,
        "meta_eccentricity": 0.02090608,
        "meta_inclination": 98.3751,
        "meta_ra_of_asc_node": 94.0413,
        "meta_arg_of_pericenter": 177.7116,
        "meta_mean_anomaly": 357.9936,
        "meta_ephemeris_type": 0,
        "meta_classification_type": "U",
        "meta_norad_cat_id": 30828,
        "meta_element_set_no": 999,
        "meta_rev_at_epoch": 98661,
        "meta_bstar": 0.0024809549,
        "meta_mean_motion_dot": 0.0002516,
        "meta_mean_motion_ddot": 0,
        "tle_line1": "1 30828U 99025AVN 25347.06099800  .00025160  00000+0  24810-2 0  9999",
        "tle_line2": "2 30828  98.3751  94.0413 0209060 177.7116 357.9936 14.77006922986614"
      },
      "geometry": {
        "type": "Point",
        "coordinates": [
          -48.50347364458788,
          76.12861149451795
        ]
      }
    },
    {
      "type": "Feature",
      "properties": {
        "norad_id": 30829,
        "name": "FENGYUN 1C DEB",
        "group": "fengyun-1c-debris",
        "lat": -49.4267985813174,
        "lon": 150.08514193563255,
        "alt_km": 875.8139133249224,
        "timestamp": "2025-12-13T20:38:51.284163+00:00",
        "meta_object_name": "FENGYUN 1C DEB",
        "meta_object_id": "1999-025AVP",
        "meta_epoch": "2025-12-09T09:51:51.342624",
        "meta_mean_motion": 14.08646778,
        "meta_eccentricity": 0.00356313,
        "meta_inclination": 98.7767,
        "meta_ra_of_asc_node": 336.1491,
        "meta_arg_of_pericenter": 344.1121,
        "meta_mean_anomaly": 15.8928,
        "meta_ephemeris_type": 0,
        "meta_classification_type": "U",
        "meta_norad_cat_id": 30829,
        "meta_element_set_no": 999,
        "meta_rev_at_epoch": 96386,
        "meta_bstar": 0.00080547059,
        "meta_mean_motion_dot": 1.351e-05,
        "meta_mean_motion_ddot": 0,
        "tle_line1": "1 30829U 99025AVP 25343.41101091  .00001351  00000+0  80547-3 0  9997",
        "tle_line2": "2 30829  98.7767 336.1491 0035631 344.1121  15.8928 14.08646778963865"
      },
      "geometry": {
        "type": "Point",
        "coordinates": [
          150.08514193563255,
          -49.4267985813174
        ]
      }
    },
    {
      "type": "Feature",
      "properties": {
        "norad_id": 30830,
        "name": "FENGYUN 1C DEB",
        "group": "fengyun-1c-debris",
        "lat": 78.30743421373774,
        "lon": -155.8310338599712,
        "alt_km": 843.4955261135437,
        "timestamp": "2025-12-13T20:38:51.284173+00:00",
        "meta_object_name": "FENGYUN 1C DEB",
        "meta_object_id": "1999-025AVQ",
        "meta_epoch": "2025-12-12T22:13:05.137824",
        "meta_mean_motion": 14.12229745,
        "meta_eccentricity": 0.0030708,
        "meta_inclination": 98.7295,
        "meta_ra_of_asc_node": 335.3217,
        "meta_arg_of_pericenter": 188.2643,
        "meta_mean_anomaly": 201.1922,
        "meta_ephemeris_type": 0,
        "meta_classification_type": "U",
        "meta_norad_cat_id": 30830,
        "meta_element_set_no": 999,
        "meta_rev_at_epoch": 96602,
        "meta_bstar": 0.0003906722,
        "meta_mean_motion_dot": 6.78e-06,
        "meta_mean_motion_ddot": 0,
        "tle_line1": "1 30830U 99025AVQ 25346.92575391  .00000678  00000+0  39067-3 0  9998",
        "tle_line2": "2 30830  98.7295 335.3217 0030708 188.2643 201.1922 14.12229745966027"
      },
      "geometry": {
        "type": "Point",
        "coordinates": [
          -155.8310338599712,
          78.30743421373774
        ]
      }
    },
    {
      "type": "Feature",
      "properties": {
        "norad_id": 30831,
        "name": "FENGYUN 1C DEB",
        "group": "fengyun-1c-debris",
        "lat": 16.54804384604561,
        "lon": 137.90511027872944,
        "alt_km": 750.0051172423046,
        "timestamp": "2025-12-13T20:38:51.284183+00:00",
        "meta_object_name": "FENGYUN 1C DEB",
        "meta_object_id": "1999-025AVR",
        "meta_epoch": "2025-12-13T03:47:25.783584",
        "meta_mean_motion": 14.31088633,
        "meta_eccentricity": 0.00555105,
        "meta_inclination": 99.3282,
        "meta_ra_of_asc_node": 139.951,
        "meta_arg_of_pericenter": 32.948,
        "meta_mean_anomaly": 327.514,
        "meta_ephemeris_type": 0,
        "meta_classification_type": "U",
        "meta_norad_cat_id": 30831,
        "meta_element_set_no": 999,
        "meta_rev_at_epoch": 65256,
        "meta_bstar": 0.00059988315,
        "meta_mean_motion_dot": 1.558e-05,
        "meta_mean_motion_ddot": 0,
        "tle_line1": "1 30831U 99025AVR 25347.15793731  .00001558  00000+0  59988-3 0  9997",
        "tle_line2": "2 30831  99.3282 139.9510 0055510  32.9480 327.5140 14.31088633652563"
      },
      "geometry": {
        "type": "Point",
        "coordinates": [
          137.90511027872944,
          16.54804384604561
        ]
      }
    },
    {
      "type": "Feature",
      "properties": {
        "norad_id": 30833,
        "name": "FENGYUN 1C DEB",
        "group": "fengyun-1c-debris",
        "lat": 18.49722502099004,
        "lon": 130.7507958145688,
        "alt_km": 824.8384051195981,
        "timestamp": "2025-12-13T20:38:51.284194+00:00",
        "meta_object_name": "FENGYUN 1C DEB",
        "meta_object_id": "1999-025AVT",
        "meta_epoch": "2025-12-13T03:43:43.154976",
        "meta_mean_motion": 14.26759277,
        "meta_eccentricity": 0.00330206,
        "meta_inclination": 99.8438,
        "meta_ra_of_asc_node": 133.2888,
        "meta_arg_of_pericenter": 179.4189,
        "meta_mean_anomaly": 180.7031,
        "meta_ephemeris_type": 0,
        "meta_classification_type": "U",
        "meta_norad_cat_id": 30833,
        "meta_element_set_no": 999,
        "meta_rev_at_epoch": 64417,
        "meta_bstar": 0.0009108957,
        "meta_mean_motion_dot": 2.165e-05,
        "meta_mean_motion_ddot": 0,
        "tle_line1": "1 30833U 99025AVT 25347.15536059  .00002165  00000+0  91090-3 0  9992",
        "tle_line2": "2 30833  99.8438 133.2888 0033020 179.4189 180.7031 14.26759277644172"
      },
      "geometry": {
        "type": "Point",
        "coordinates": [
          130.7507958145688,
          18.49722502099004
        ]
      }
    },
    {
      "type": "Feature",
      "properties": {
        "norad_id": 30836,
        "name": "FENGYUN 1C DEB",
        "group": "fengyun-1c-debris",
        "lat": 69.01406596764114,
        "lon": -135.84650324470505,
        "alt_km": 858.5122812687896,
        "timestamp": "2025-12-13T20:38:51.284204+00:00",
        "meta_object_name": "FENGYUN 1C DEB",
        "meta_object_id": "1999-025AVW",
        "meta_epoch": "2025-12-11T22:12:36.706176",
        "meta_mean_motion": 14.11932534,
        "meta_eccentricity": 0.0025667,
        "meta_inclination": 98.7452,
        "meta_ra_of_asc_node": 18.6084,
        "meta_arg_of_pericenter": 247.0084,
        "meta_mean_anomaly": 112.838,
        "meta_ephemeris_type": 0,
        "meta_classification_type": "U",
        "meta_norad_cat_id": 30836,
        "meta_element_set_no": 999,
        "meta_rev_at_epoch": 61992,
        "meta_bstar": 0.00050218,
        "meta_mean_motion_dot": 8.78e-06,
        "meta_mean_motion_ddot": 0,
        "tle_line1": "1 30836U 99025AVW 25345.92542484  .00000878  00000+0  50218-3 0  9993",
        "tle_line2": "2 30836  98.7452  18.6084 0025667 247.0084 112.8380 14.11932534619928"
      },
      "geometry": {
        "type": "Point",
        "coordinates": [
          -135.84650324470505,
          69.01406596764114
        ]
      }
    }
  ]
}